NORAD_CAT_ID,OBJECT_NAME,OBJECT_TYPE,EPOCH,MEAN_MOTION,ECCENTRICITY,INCLINATION,RA_OF_ASC_NODE,ARG_OF_PERICENTER,MEAN_ANOMALY,BSTAR,MEAN_MOTION_DOT,MEAN_MOTION_DDOT,TLE_LINE0,TLE_LINE1,TLE_LINE2,SEMIMAJOR_AXIS,PERIOD,APOGEE,PERIGEE,DECAYED
51462.0,STARLINK-3166,PAYLOAD,2022-12-20 11:14:48,15.08836629,0.0003266,53.214,154.9011,56.1688,303.9614,9.5258e-05,1.228e-05,0.0,0 STARLINK-3166,1 51462U 22010G   22354.46861701  .00001228  00000-0  95258-4 0  9998,2 51462  53.2140 154.9011 0003266  56.1688 303.9614 15.08836629 49879,6917.891,95.438,542.015,537.496,0.0
51462.0,STARLINK-3166,PAYLOAD,2022-12-21 11:05:35,15.088368,0.0003235,53.2152,150.4407,57.2223,302.908,3.4142e-05,2.55e-06,0.0,0 STARLINK-3166,1 51462U 22010G   22355.46221882  .00000255  00000-0  34142-4 0  9993,2 51462  53.2152 150.4407 0003235  57.2223 302.9080 15.08836800 49557,6917.89,95.438,541.993,537.5169999999998,0.0
51462.0,STARLINK-3166,PAYLOAD,2022-12-21 17:27:08,15.08839987,0.0003236,53.2153,149.2513,57.1753,302.9551,4.8224e-05,4.79e-06,0.0,0 STARLINK-3166,1 51462U 22010G   22355.72717619  .00000479  00000-0  48224-4 0  9994,2 51462  53.2153 149.2513 0003236  57.1753 302.9551 15.08839987 50060,6917.88,95.438,541.984,537.507,0.0
51462.0,STARLINK-3166,PAYLOAD,2022-12-22 09:20:58,15.08843926,0.0003195,53.2154,146.2773,59.1677,300.9629,0.00014762,2.062e-05,0.0,0 STARLINK-3166,1 51462U 22010G   22356.38957078  .00002062  00000-0  14762-3 0  9991,2 51462  53.2154 146.2773 0003195  59.1677 300.9629 15.08843926 49696,6917.868,95.437,541.944,537.523,0.0
51462.0,STARLINK-3166,PAYLOAD,2022-12-22 18:53:17,15.08850341,0.000321,53.2156,144.4936,59.2783,300.8525,0.00020268,2.94e-05,0.0,0 STARLINK-3166,1 51462U 22010G   22356.78700547  .00002940  00000-0  20268-3 0  9995,2 51462  53.2156 144.4936 0003210  59.2783 300.8525 15.08850341 50220,6917.849,95.437,541.934,537.493,0.0
51462.0,STARLINK-3166,PAYLOAD,2022-12-23 02:50:13,15.08838865,0.0003085,53.2155,143.0063,61.6395,298.4908,6.523899999999999e-05,7.4999999999999985e-06,0.0,0 STARLINK-3166,1 51462U 22010G   22357.11821518  .00000750  00000-0  65239-4 0  9990,2 51462  53.2155 143.0063 0003085  61.6395 298.4908 15.08838865 50270,6917.884,95.438,541.883,537.615,0.0
51462.0,STARLINK-3166,PAYLOAD,2022-12-23 09:11:46,15.08840921,0.0003187,53.2155,141.8167,60.253,299.8779,0.0001213,1.642e-05,0.0,0 STARLINK-3166,1 51462U 22010G   22357.38317331  .00001642  00000-0  12130-3 0  9994,2 51462  53.2155 141.8167 0003187  60.2530 299.8779 15.08840921 49848,6917.878000000002,95.437,541.947,537.538,0.0
51462.0,STARLINK-3166,PAYLOAD,2022-12-23 15:33:18,15.08847319,0.0003237,53.2146,140.627,60.9759,299.1557,0.00013025,1.785e-05,0.0,0 STARLINK-3166,1 51462U 22010G   22357.64812778  .00001785  00000-0  13025-3 0  9990,2 51462  53.2146 140.6270 0003237  60.9759 299.1557 15.08847319 49885,6917.858,95.437,541.962,537.484,0.0
51462.0,STARLINK-3166,PAYLOAD,2022-12-24 02:41:00,15.0883954,0.0002939,53.2147,138.5452,59.4103,300.7179,-4.7231e-05,-1.04e-05,0.0,0 STARLINK-3166,1 51462U 22010G   22358.11181056 -.00001040  00000-0 -47231-4 0  9994,2 51462  53.2147 138.5452 0002939  59.4103 300.7179 15.08839540 49952,6917.882,95.438,541.78,537.714,0.0
51462.0,STARLINK-3166,PAYLOAD,2022-12-24 18:34:51,15.08848358,0.0003073,53.2139,135.5744,59.3547,300.7748,0.00016528,2.343e-05,0.0,0 STARLINK-3166,1 51462U 22010G   22358.77420525  .00002343  00000-0  16528-3 0  9992,2 51462  53.2139 135.5744 0003073  59.3547 300.7748 15.08848358 50529,6917.855,95.437,541.846,537.594,0.0
51462.0,STARLINK-3166,PAYLOAD,2022-12-25 08:53:19,15.088456,0.0003012,53.2143,132.8962,60.8657,299.2636,0.00012178,1.65e-05,0.0,0 STARLINK-3166,1 51462U 22010G   22359.37036563  .00001650  00000-0  12178-3 0  9991,2 51462  53.2143 132.8962 0003012  60.8657 299.2636 15.08845600 50613,6917.863,95.437,541.812,537.645,0.0
51462.0,STARLINK-3166,PAYLOAD,2022-12-25 18:25:38,15.08837696,0.0002839,53.2151,131.1114,60.9918,299.1358,-0.00023218,-3.982e-05,0.0,0 STARLINK-3166,1 51462U 22010G   22359.76780971 -.00003982  00000-0 -23218-3 0  9992,2 51462  53.2151 131.1114 0002839  60.9918 299.1358 15.08837696 50672,6917.887,95.438,541.716,537.788,0.0
51462.0,STARLINK-3166,PAYLOAD,2022-12-26 08:44:07,15.08837387,0.0002833999999999,53.2156,128.4352,59.9377,300.1896,3.8526e-05,3.25e-06,0.0,0 STARLINK-3166,1 51462U 22010G   22360.36397321  .00000325  00000-0  38526-4 0  9998,2 51462  53.2156 128.4352 0002834  59.9377 300.1896 15.08837387 50297,6917.888000000001,95.438,541.714,537.793,0.0
51462.0,STARLINK-3166,PAYLOAD,2022-12-26 16:41:02,15.08850136,0.0002836,53.2159,126.9487,60.4153,299.7122,7.961e-05,9.79e-06,0.0,0 STARLINK-3166,1 51462U 22010G   22360.69516535  .00000979  00000-0  79610-4 0  9998,2 51462  53.2159 126.9487 0002836  60.4153 299.7122 15.08850136 50813,6917.849,95.437,541.6759999999998,537.753,0.0
51462.0,STARLINK-3166,PAYLOAD,2022-12-26 18:16:25,15.08851397,0.0002837,53.2159,126.6512,60.6227,299.5048,8.900299999999999e-05,1.129e-05,0.0,0 STARLINK-3166,1 51462U 22010G   22360.76140419  .00001129  00000-0  89003-4 0  9995,2 51462  53.2159 126.6512 0002837  60.6227 299.5048 15.08851397 50358,6917.846,95.437,541.673,537.748,0.0
51462.0,STARLINK-3166,PAYLOAD,2022-12-27 11:45:39,15.08836647,0.0002618,53.2155,123.3801,60.5064,299.6189,0.0004208,6.415e-05,0.0,0 STARLINK-3166,1 51462U 22010G   22361.49004614  .00006415  00000-0  42080-3 0  9998,2 51462  53.2155 123.3801 0002618  60.5064 299.6189 15.08836647 50464,6917.891,95.438,541.567,537.945,0.0
51462.0,STARLINK-3166,PAYLOAD,2022-12-27 18:07:12,15.08852448,0.0002686,53.2157,122.1912,57.1759,302.9491,0.00034522,5.212e-05,0.0,0 STARLINK-3166,1 51462U 22010G   22361.75500347  .00005212  00000-0  34522-3 0  9997,2 51462  53.2157 122.1912 0002686  57.1759 302.9491 15.08852448 50971,6917.842,95.437,541.565,537.849,0.0
51462.0,STARLINK-3166,PAYLOAD,2022-12-28 08:25:40,15.08851382,0.0002863,53.2144,119.5159,58.5195,301.6076,0.00015211,2.134e-05,0.0,0 STARLINK-3166,1 51462U 22010G   22362.35116059  .00002134  00000-0  15211-3 0  9991,2 51462  53.2144 119.5159 0002863  58.5195 301.6076 15.08851382 50595,6917.846,95.437,541.691,537.73,0.0
51462.0,STARLINK-3166,PAYLOAD,2022-12-29 00:19:32,15.08831503,0.0002743,53.2146,116.5424,56.9549,303.1706,-0.0002185,-3.764e-05,0.0,0 STARLINK-3166,1 51462U 22010G   22363.01356891 -.00003764  00000-0 -21850-3 0  9993,2 51462  53.2146 116.5424 0002743  56.9549 303.1706 15.08831503 51165,6917.906,95.438,541.669,537.874,0.0
51462.0,STARLINK-3166,PAYLOAD,2022-12-29 08:16:29,15.08825151,0.0002487,53.2163,115.0541,61.2985,298.8257,-0.00016052,-2.841e-05,0.0,0 STARLINK-3166,1 51462U 22010G   22363.34478235 -.00002841  00000-0 -16052-3 0  9999,2 51462  53.2163 115.0541 0002487  61.2985 298.8257 15.08825151 51215,6917.926,95.438,541.511,538.07,0.0
51462.0,STARLINK-3166,PAYLOAD,2022-12-30 12:53:25,15.08829414,0.0002418,53.2166,109.7022,58.5332,301.5897,0.0001764999999999,2.521e-05,0.0,0 STARLINK-3166,1 51462U 22010G   22364.53710288  .00002521  00000-0  17650-3 0  9996,2 51462  53.2166 109.7022 0002418  58.5332 301.5897 15.08829414 51398,6917.913000000001,95.438,541.45,538.105,0.0
51462.0,STARLINK-3166,PAYLOAD,2022-12-31 00:01:06,15.08864685,0.0002278,53.2159,107.62,51.0315,309.088,0.0006117,9.467e-05,0.0,0 STARLINK-3166,1 51462U 22010G   22365.00077395  .00009467  00000-0  61170-3 0  9996,2 51462  53.2159 107.6200 0002278  51.0315 309.0880 15.08864685 51460,6917.805,95.436,541.246,538.094,0.0
51462.0,STARLINK-3166,PAYLOAD,2022-12-31 11:08:48,15.08883087,0.0002472,53.215,105.5382,50.2636,309.8573,0.0010755,0.0001689,0.0,0 STARLINK-3166,1 51462U 22010G   22365.46444987  .00016890  00000-0  10755-2 0  9991,2 51462  53.2150 105.5382 0002472  50.2636 309.8573 15.08883087 51062,6917.749,95.435,541.3240000000002,537.904,0.0
51462.0,STARLINK-3166,PAYLOAD,2022-12-31 15:54:57,15.08886093,0.0002368,53.2147,104.647,45.7091,314.4095,0.0010803,0.00016969,0.0,0 STARLINK-3166,1 51462U 22010G   22365.66316447  .00016969  00000-0  10803-2 0  9993,2 51462  53.2147 104.6470 0002368  45.7091 314.4095 15.08886093 51098,6917.74,95.435,541.243,537.966,0.0
51462.0,STARLINK-3166,PAYLOAD,2023-01-01 06:13:26,15.08857332,0.0003596,53.2145,101.9702,58.2683,301.8659,0.0011639,0.00018294,0.0,0 STARLINK-3166,1 51462U 22010G   23001.25932919  .00018294  00000-0  11639-2 0  9995,2 51462  53.2145 101.9702 0003596  58.2683 301.8659 15.08857332 51656,6917.8269999999975,95.436,542.18,537.205,0.0
51462.0,STARLINK-3166,PAYLOAD,2023-01-01 12:34:58,15.08819292,0.0001837,53.2149,100.7802,37.6963,322.4157,0.00044454,6.790000000000001e-05,0.0,0 STARLINK-3166,1 51462U 22010G   23001.52429214  .00006790  00000-0  44454-3 0  9994,2 51462  53.2149 100.7802 0001837  37.6963 322.4157 15.08819292 51695,6917.944,95.439,541.08,538.538,0.0
51462.0,STARLINK-3166,PAYLOAD,2023-01-01 15:45:45,15.08824645,0.0001984,53.2152,100.1854,41.7333,318.381,-0.00019371,-3.369e-05,0.0,0 STARLINK-3166,1 51462U 22010G   23001.65677296 -.00003369  00000-0 -19371-3 0  9994,2 51462  53.2152 100.1854 0001984  41.7333 318.3810 15.08824645 51249,6917.927,95.439,541.165,538.42,0.0
51462.0,STARLINK-3166,PAYLOAD,2023-01-01 23:42:41,15.08812028,0.0001964,53.2148,98.699,39.1806,320.9328,6.9176e-05,8.12e-06,0.0,0 STARLINK-3166,1 51462U 22010G   23001.98798302  .00000812  00000-0  69176-4 0  9999,2 51462  53.2148  98.6990 0001964  39.1806 320.9328 15.08812028 51762,6917.965999999999,95.439,541.19,538.472,0.0
51462.0,STARLINK-3166,PAYLOAD,2023-01-02 12:25:47,15.08828918,0.0001943999999999,53.2148,96.3198,38.3634,321.7496,0.00058414,9.018e-05,0.0,0 STARLINK-3166,1 51462U 22010G   23002.51790800  .00009018  00000-0  58414-3 0  9993,2 51462  53.2148  96.3198 0001944  38.3634 321.7496 15.08828918 51844,6917.9140000000025,95.438,541.124,538.434,0.0
